STARLINK-35416          
1 66248U 25245Q   25325.16668980  .00140320  00000+0  24941-2 0  9996
2 66248  53.1606  71.3766 0001377 118.4269 225.5944 15.49215692  4580
STARLINK-35304          
1 66249U 25245R   25325.16668980  .00112658  00000+0  20100-2 0  9993
2 66249  53.1608  71.3641 0001385 103.9024 245.8481 15.49231924  4422
STARLINK-35338          
1 66250U 25245S   25325.16668980  .00128941  00000+0  22939-2 0  9999
2 66250  53.1607  71.3718 0001103  93.8392 252.1426 15.49240593  4535
STARLINK-35485          
1 66251U 25245T   25325.16668980  .00115485  00000+0  20591-2 0  9991
2 66251  53.1607  71.3681 0001357 100.3735 247.4633 15.49236735  4429
STARLINK-35483          
1 66252U 25245U   25325.16668980  .00116979  00000+0  20851-2 0  9990
2 66252  53.1606  71.3596 0001464 102.4088 249.2593 15.49238762  4581
STARLINK-35486          
1 66253U 25245V   25325.16668980  .00108952  00000+0  19441-2 0  9996
2 66253  53.1607  71.3557 0000673  86.6531 267.0090 15.49245686  4423
STARLINK-35488          
1 66254U 25245W   25325.16668980  .00136769  00000+0  24298-2 0  9990
2 66254  53.1609  71.3510 0000680  94.7568 260.7987 15.49245289  4630
STARLINK-35616          
1 66255U 25245X   25325.16668980  .00147010  00000+0  26081-2 0  9994
2 66255  53.1607  71.3474 0000678  90.7102 266.7743 15.49240918  4635
STARLINK-35619          
1 66256U 25245Y   25325.16668980  .00103216  00000+0  18442-2 0  9997
2 66256  53.1606  71.3354 0001392  76.9618 286.3272 15.49235073  4635
STARLINK-35615          
1 66257U 25245Z   25325.16668980  .00102405  00000+0  18299-2 0  9997
2 66257  53.1607  71.3396 0001330  83.9381 277.4315 15.49236601  4637
STARLINK-34650          
1 66258U 25245AA  25325.16668980  .00111712  00000+0  19935-2 0  9997
2 66258  53.1607  71.3434 0001395 102.7378 256.6037 15.49231412  4633
STARLINK-35529          
1 66259U 25245AB  25325.16668980  .00101706  00000+0  18175-2 0  9995
2 66259  53.1606  71.3273 0001382  82.4180 284.7014 15.49237948  4632
